ONEWEB-0228             
1 48780U 21045P   24063.51099316  .00000069  00000+0  14890-3 0  9997
2 48780  87.8946  65.4974 0001953  85.2138 274.9215 13.15549495134454
